STARLINK-32469          
1 61721U 24196Q   26068.38946693  .00000582  00000+0  31791-4 0  9998
2 61721  53.1601 102.5175 0001054  81.5233 278.5887 15.30192485 77117
2025-313BC              
1 67298U 25313BC  26068.18968176  .00075331  00000+0  26410-2 0  9997
2 67298  97.3985 144.8110 0008478 328.9209  31.1528 15.29126358  7890
